0 FENGYUN 1C DEB
1 30088U 99025QR  13282.12605572  .00000609  00000-0  20277-3 0  8263
2 30088 098.7124 325.9069 0223210 076.9337 300.3952 14.28052875350913
0 FENGYUN 1C DEB
1 30088U 99025QR  13283.40799745  .00000581  00000-0  19436-3 0  8276
2 30088 098.7123 327.1869 0223171 073.2034 050.8273 14.28054830351090
0 FENGYUN 1C DEB
1 30088U 99025QR  13285.07639632  .00000562  00000-0  18858-3 0  8286
2 30088 098.7119 328.8529 0223112 068.3459 348.0436 14.28056596351338
0 FENGYUN 1C DEB
1 30088U 99025QR  13286.75972639  .00000713  00000-0  23517-3 0  8296
2 30088 098.7114 330.5338 0223026 063.4428 002.0385 14.28058119351576
0 FENGYUN 1C DEB
1 30088U 99025QR  13287.80891360  .00000798  00000-0  26140-3 0  8304
2 30088 098.7111 331.5815 0222969 060.3861 355.9098 14.28061147351729
0 FENGYUN 1C DEB
1 30088U 99025QR  13288.86558019  .00000869  00000-0  28347-3 0  8313
2 30088 098.7108 332.6365 0222921 057.3066 028.2478 14.28063254351877
0 FENGYUN 1C DEB
1 30088U 99025QR  13290.41429966  .00000790  00000-0  25905-3 0  8326
2 30088 098.7104 334.1827 0222841 052.7910 070.2498 14.28066444352099
0 FENGYUN 1C DEB
1 30088U 99025QR  13291.80305998  .00000796  00000-0  26091-3 0  8332
2 30088 098.7102 335.5691 0222764 048.7431 009.9131 14.28068489352294
0 FENGYUN 1C DEB
1 30088U 99025QR  13293.05644675  .00000853  00000-0  27857-3 0  8345
2 30088 098.7101 336.8203 0222698 045.0859 333.6293 14.28070116352472
0 FENGYUN 1C DEB
1 30088U 99025QR  13294.10819975  .00000799  00000-0  26190-3 0  8358
2 30088 098.7100 337.8701 0222647 042.0158 340.7433 14.28072346352627
0 FENGYUN 1C DEB
1 30088U 99025QR  13295.66805909  .00000865  00000-0  28255-3 0  8361
2 30088 098.7101 339.4272 0222565 037.4672 080.0667 14.28074675352841
